{
  "norad_id": 62450,
  "name": "STARLINK-32722",
  "history": [
    {
      "epoch": "2026-03-28T17:11:49.195968",
      "apogee_km": 475.7948349512735,
      "perigee_km": 474.6089331907733,
      "latitude_deg": -5.793895952246045,
      "longitude_deg": 133.787995519815,
      "semi_major_axis_km": 6853.338884071023,
      "eccentricity": 8.652e-05,
      "inclination_deg": 53.1581,
      "raan_deg": 246.7681,
      "arg_perigee_deg": 84.5677,
      "mean_anomaly_deg": 275.5422,
      "mean_motion_rev_day": 15.30204416
    }
  ]
}